[{"OBJECT_NAME":"OBJECT H","OBJECT_ID":"2024-205H","EPOCH":"2026-03-09T23:10:36.271776","MEAN_MOTION":15.29110994,"ECCENTRICITY":0.00105089,"INCLINATION":97.4168,"RA_OF_ASC_NODE":147.1265,"ARG_OF_PERICENTER":38.7838,"MEAN_ANOMALY":321.4154,"EPHEMERIS_TYPE":0,"CLASSIFICATION_TYPE":"U","NORAD_CAT_ID":61901,"ELEMENT_SET_NO":999,"REV_AT_EPOCH":7354,"BSTAR":0.00059497566,"MEAN_MOTION_DOT":0.00016783,"MEAN_MOTION_DDOT":0},{"OBJECT_NAME":"STARLINK-36519","OBJECT_ID":"2026-008E","EPOCH":"2026-03-09T09:11:08.446560","MEAN_MOTION":15.27609513,"ECCENTRICITY":0.0001292,"INCLINATION":43.0015,"RA_OF_ASC_NODE":207.0985,"ARG_OF_PERICENTER":222.2698,"MEAN_ANOMALY":137.8054,"EPHEMERIS_TYPE":0,"CLASSIFICATION_TYPE":"U","NORAD_CAT_ID":67449,"ELEMENT_SET_NO":999,"REV_AT_EPOCH":952,"BSTAR":0.0011093725,"MEAN_MOTION_DOT":0.00030419,"MEAN_MOTION_DDOT":0}]
